GLOBALSTAR M094 [+]     
1 39074U 13005C   24025.89434526 -.00000055  00000+0  26953-3 0  9994
2 39074  51.9964 289.7203 0000536  64.2057 295.8865 12.62271508508187
GLOBALSTAR M096 [+]     
1 39075U 13005D   24025.90778736 -.00000079  00000+0  13711-3 0  9995
2 39075  52.0099 337.7970 0000128 110.0080 250.0801 12.62271644507102
GLOBALSTAR M087 [+]     
1 52888U 22064A   24025.93930654 -.00000093  00000+0  67269-4 0  9993
2 52888  51.9780 347.8768 0009614   3.6234 356.4735 13.37563387 78356
